{
  "schema": "int-temerity-real-tle-snapshot/v1",
  "source": "celestrak",
  "group": "STARLINK",
  "format": "celestrak-gp-json",
  "source_url": "https://celestrak.org/NORAD/elements/gp.php?NAME=STARLINK&FORMAT=JSON",
  "downloaded_at": "2026-06-26T09:52:00.103Z",
  "generated_at": "2026-06-26T09:52:00.244Z",
  "fingerprint": "ba85ff7c",
  "shell_id": "starlink-real-43deg-490km",
  "catalog_count": 10658,
  "shell_count": 3264,
  "selected_count": 64,
  "mean_altitude_km": 490.15,
  "mean_inclination_deg": 43.002,
  "mean_mean_motion_rev_per_day": 15.27590899,
  "layout": {
    "planes": 8,
    "satellites_per_plane": 8,
    "selection_strategy": "largest-shell-raan-clusters-even-slot-sampling",
    "raan_cluster_threshold_deg": 1.5
  },
  "satellites": [
    {
      "satellite_id": "P06-S03",
      "norad_id": 63969,
      "satellite_name": "STARLINK-34112",
      "cospar_id": "2025-099T",
      "shell_id": "starlink-real-43deg-490km",
      "plane_id": 5,
      "slot_id": 2,
      "epoch": "2026-06-25T15:53:49.650144",
      "inclination": 43.0007,
      "raan": 286.06950000000006,
      "eccentricity": 0.0001746,
      "argument_of_perigee": 271.63210000000004,
      "mean_anomaly": 88.43299999999999,
      "mean_motion": 15.27621752,
      "bstar": 0.0014612,
      "status": "active",
      "raw_omm": {
        "OBJECT_NAME": "STARLINK-34112",
        "OBJECT_ID": "2025-099T",
        "EPOCH": "2026-06-25T15:53:49.650144",
        "MEAN_MOTION": 15.27621752,
        "ECCENTRICITY": 0.0001746,
        "INCLINATION": 43.0007,
        "RA_OF_ASC_NODE": 286.0695,
        "ARG_OF_PERICENTER": 271.6321,
        "MEAN_ANOMALY": 88.433,
        "EPHEMERIS_TYPE": 0,
        "CLASSIFICATION_TYPE": "U",
        "NORAD_CAT_ID": 63969,
        "ELEMENT_SET_NO": 999,
        "REV_AT_EPOCH": 6385,
        "BSTAR": 0.0014612,
        "MEAN_MOTION_DOT": 0.00040217,
        "MEAN_MOTION_DDOT": 0
      },
      "source": "celestrak",
      "source_url": "https://celestrak.org/NORAD/elements/gp.php?NAME=STARLINK&FORMAT=JSON",
      "catalog_fingerprint": "ba85ff7c"
    },
    {
      "satellite_id": "P06-S04",
      "norad_id": 63899,
      "satellite_name": "STARLINK-34134",
      "cospar_id": "2025-095K",
      "shell_id": "starlink-real-43deg-490km",
      "plane_id": 5,
      "slot_id": 3,
      "epoch": "2026-06-25T16:32:43.253664",
      "inclination": 43.0038,
      "raan": 286.4077,
      "eccentricity": 0.0001674,
      "argument_of_perigee": 262.39149999999995,
      "mean_anomaly": 97.67470000000003,
      "mean_motion": 15.27604152,
      "bstar": 0.00068864,
      "status": "active",
      "raw_omm": {
        "OBJECT_NAME": "STARLINK-34134",
        "OBJECT_ID": "2025-095K",
        "EPOCH": "2026-06-25T16:32:43.253664",
        "MEAN_MOTION": 15.27604152,
        "ECCENTRICITY": 0.0001674,
        "INCLINATION": 43.0038,
        "RA_OF_ASC_NODE": 286.4077,
        "ARG_OF_PERICENTER": 262.3915,
        "MEAN_ANOMALY": 97.6747,
        "EPHEMERIS_TYPE": 0,
        "CLASSIFICATION_TYPE": "U",
        "NORAD_CAT_ID": 63899,
        "ELEMENT_SET_NO": 999,
        "REV_AT_EPOCH": 6430,
        "BSTAR": 0.00068864,
        "MEAN_MOTION_DOT": 0.0001875,
        "MEAN_MOTION_DDOT": 0
      },
      "source": "celestrak",
      "source_url": "https://celestrak.org/NORAD/elements/gp.php?NAME=STARLINK&FORMAT=JSON",
      "catalog_fingerprint": "ba85ff7c"
    },
    {
      "satellite_id": "P06-S05",
      "norad_id": 63913,
      "satellite_name": "STARLINK-34070",
      "cospar_id": "2025-095Z",
      "shell_id": "starlink-real-43deg-490km",
      "plane_id": 5,
      "slot_id": 4,
      "epoch": "2026-06-25T16:17:54.920832",
      "inclination": 43.0037,
      "raan": 286.3263999999999,
      "eccentricity": 0.0001586,
      "argument_of_perigee": 285.9367,
      "mean_anomaly": 74.13099999999997,
      "mean_motion": 15.27607678,
      "bstar": 0.00072384,
      "status": "active",
      "raw_omm": {
        "OBJECT_NAME": "STARLINK-34070",
        "OBJECT_ID": "2025-095Z",
        "EPOCH": "2026-06-25T16:17:54.920832",
        "MEAN_MOTION": 15.27607678,
        "ECCENTRICITY": 0.0001586,
        "INCLINATION": 43.0037,
        "RA_OF_ASC_NODE": 286.3264,
        "ARG_OF_PERICENTER": 285.9367,
        "MEAN_ANOMALY": 74.131,
        "EPHEMERIS_TYPE": 0,
        "CLASSIFICATION_TYPE": "U",
        "NORAD_CAT_ID": 63913,
        "ELEMENT_SET_NO": 999,
        "REV_AT_EPOCH": 6429,
        "BSTAR": 0.00072384,
        "MEAN_MOTION_DOT": 0.00019727,
        "MEAN_MOTION_DDOT": 0
      },
      "source": "celestrak",
      "source_url": "https://celestrak.org/NORAD/elements/gp.php?NAME=STARLINK&FORMAT=JSON",
      "catalog_fingerprint": "ba85ff7c"
    },
    {
      "satellite_id": "P06-S06",
      "norad_id": 63970,
      "satellite_name": "STARLINK-34084",
      "cospar_id": "2025-099U",
      "shell_id": "starlink-real-43deg-490km",
      "plane_id": 5,
      "slot_id": 5,
      "epoch": "2026-06-25T17:22:25.813632",
      "inclination": 43.0015,
      "raan": 285.67010000000005,
      "eccentricity": 0.0001393,
      "argument_of_perigee": 261.8888999999999,
      "mean_anomaly": 98.1805,
      "mean_motion": 15.27603999,
      "bstar": 0.00081596,
      "status": "active",
      "raw_omm": {
        "OBJECT_NAME": "STARLINK-34084",
        "OBJECT_ID": "2025-099U",
        "EPOCH": "2026-06-25T17:22:25.813632",
        "MEAN_MOTION": 15.27603999,
        "ECCENTRICITY": 0.0001393,
        "INCLINATION": 43.0015,
        "RA_OF_ASC_NODE": 285.6701,
        "ARG_OF_PERICENTER": 261.8889,
        "MEAN_ANOMALY": 98.1805,
        "EPHEMERIS_TYPE": 0,
        "CLASSIFICATION_TYPE": "U",
        "NORAD_CAT_ID": 63970,
        "ELEMENT_SET_NO": 999,
        "REV_AT_EPOCH": 6386,
        "BSTAR": 0.00081596,
        "MEAN_MOTION_DOT": 0.00022276,
        "MEAN_MOTION_DDOT": 0
      },
      "source": "celestrak",
      "source_url": "https://celestrak.org/NORAD/elements/gp.php?NAME=STARLINK&FORMAT=JSON",
      "catalog_fingerprint": "ba85ff7c"
    },
    {
      "satellite_id": "P06-S07",
      "norad_id": 63898,
      "satellite_name": "STARLINK-34120",
      "cospar_id": "2025-095J",
      "shell_id": "starlink-real-43deg-490km",
      "plane_id": 5,
      "slot_id": 6,
      "epoch": "2026-06-25T17:03:57.909024",
      "inclination": 42.9997,
      "raan": 285.7074,
      "eccentricity": 0.0001232,
      "argument_of_perigee": 289.8062,
      "mean_anomaly": 70.26569999999998,
      "mean_motion": 15.27598203,
      "bstar": 0.00046678,
      "status": "active",
      "raw_omm": {
        "OBJECT_NAME": "STARLINK-34120",
        "OBJECT_ID": "2025-095J",
        "EPOCH": "2026-06-25T17:03:57.909024",
        "MEAN_MOTION": 15.27598203,
        "ECCENTRICITY": 0.0001232,
        "INCLINATION": 42.9997,
        "RA_OF_ASC_NODE": 285.7074,
        "ARG_OF_PERICENTER": 289.8062,
        "MEAN_ANOMALY": 70.2657,
        "EPHEMERIS_TYPE": 0,
        "CLASSIFICATION_TYPE": "U",
        "NORAD_CAT_ID": 63898,
        "ELEMENT_SET_NO": 999,
        "REV_AT_EPOCH": 6431,
        "BSTAR": 0.00046678,
        "MEAN_MOTION_DOT": 0.00012612,
        "MEAN_MOTION_DDOT": 0
      },
      "source": "celestrak",
      "source_url": "https://celestrak.org/NORAD/elements/gp.php?NAME=STARLINK&FORMAT=JSON",
      "catalog_fingerprint": "ba85ff7c"
    },
    {
      "satellite_id": "P06-S08",
      "norad_id": 63953,
      "satellite_name": "STARLINK-34137",
      "cospar_id": "2025-099B",
      "shell_id": "starlink-real-43deg-490km",
      "plane_id": 5,
      "slot_id": 7,
      "epoch": "2026-06-25T18:14:15.061056",
      "inclination": 43.0033,
      "raan": 285.9504999999999,
      "eccentricity": 0.0001372,
      "argument_of_perigee": 351.21260000000007,
      "mean_anomaly": 8.870200000000011,
      "mean_motion": 15.27617267,
      "bstar": 0.0011228,
      "status": "active",
      "raw_omm": {
        "OBJECT_NAME": "STARLINK-34137",
        "OBJECT_ID": "2025-099B",
        "EPOCH": "2026-06-25T18:14:15.061056",
        "MEAN_MOTION": 15.27617267,
        "ECCENTRICITY": 0.0001372,
        "INCLINATION": 43.0033,
        "RA_OF_ASC_NODE": 285.9505,
        "ARG_OF_PERICENTER": 351.2126,
        "MEAN_ANOMALY": 8.8702,
        "EPHEMERIS_TYPE": 0,
        "CLASSIFICATION_TYPE": "U",
        "NORAD_CAT_ID": 63953,
        "ELEMENT_SET_NO": 999,
        "REV_AT_EPOCH": 6386,
        "BSTAR": 0.0011228,
        "MEAN_MOTION_DOT": 0.00030798,
        "MEAN_MOTION_DDOT": 0
      },
      "source": "celestrak",
      "source_url": "https://celestrak.org/NORAD/elements/gp.php?NAME=STARLINK&FORMAT=JSON",
      "catalog_fingerprint": "ba85ff7c"
    }
  ]
}