STARLINK-34120          
1 63898U 25095J   26176.71108691  .00012612  00000+0  46678-3 0  9995
2 63898  42.9997 285.7074 0001232 289.8062  70.2657 15.27598203 64315
STARLINK-34134          
1 63899U 25095K   26176.68938951  .00018750  00000+0  68864-3 0  9992
2 63899  43.0038 286.4077 0001674 262.3915  97.6747 15.27604152 64301
STARLINK-34070          
1 63913U 25095Z   26176.67910788  .00019727  00000+0  72384-3 0  9993
2 63913  43.0037 286.3264 0001586 285.9367  74.1310 15.27607678 64298
STARLINK-34137          
1 63953U 25099B   26176.75989654  .00030798  00000+0  11228-2 0  9998
2 63953  43.0033 285.9505 0001372 351.2126   8.8702 15.27617267 63860
STARLINK-34112          
1 63969U 25099T   26176.66238021  .00040217  00000+0  14612-2 0  9997
2 63969  43.0007 286.0695 0001746 271.6321  88.4330 15.27621752 63851
STARLINK-34084          
1 63970U 25099U   26176.72390988  .00022276  00000+0  81596-3 0  9998
2 63970  43.0015 285.6701 0001393 261.8889  98.1805 15.27603999 63862
